SL-14 R/B               
1 21423U 91042B   26024.39271087  .00000703  00000+0  85914-4 0  9999
2 21423  82.4914 261.7304 0017861  31.1185 329.1082 14.81785771846515
ERS-1                   
1 21574U 91050A   26024.48787567  .00000663  00000+0  22666-3 0  9999
2 21574  98.7898  41.6116 0031480 335.2350  24.7324 14.39408048809376
ARIANE 40 R/B           
1 21610U 91050F   26024.43584339  .00000690  00000+0  21933-3 0  9993
2 21610  98.2103  78.3134 0002888 185.7202 174.3956 14.42856601812612
INTERCOSMOS 25          
1 21819U 91086A   26024.32063862  .00001752  00000+0  34562-3 0  9996
2 21819  82.6091 336.8211 1486158 212.5446 137.4942 12.11875511491310
SL-8 R/B                
1 21876U 92008B   26024.53248009  .00000123  00000+0  11158-3 0  9992
2 21876  82.9287 300.6231 0033314 257.8767 275.2786 13.75968076703349
SL-8 R/B                
1 21938U 92020B   26024.46518310  .00000201  00000+0  19246-3 0  9995
2 21938  82.9305 186.5892 0030072  62.5873 351.2212 13.75541198695059
USA 81                  
1 21949U 92023A   26024.43859756  .00000421  00000+0  14852-3 0  9991
2 21949  85.0111 156.9537 0002133 114.5338 245.6077 14.32348574 88450
COSMOS 2219             
1 22219U 92076A   26024.52162114 -.00000130  00000+0 -43165-4 0  9994
2 22219  71.0613 110.4049 0020820 268.3437  91.5300 14.14081059712135
SL-16 R/B               
1 22220U 92076B   26024.45222403 -.00000122  00000+0 -36960-4 0  9992
2 22220  70.9999 281.5604 0012399 173.0501 359.2763 14.16850490715567
COSMOS 2221             
1 22236U 92080A   26024.29466885  .00004362  00000+0  38617-3 0  9998
2 22236  82.5066 321.5912 0014262 349.2352  10.8562 14.95991122774159
SL-16 R/B               
1 22285U 92093B   26024.49990344  .00000117  00000+0  84119-4 0  9993
2 22285  71.0222  97.0357 0004414 342.3554  17.7415 14.15443252706903
COSMOS 2228             
1 22286U 92094A   26024.47369186  .00003234  00000+0  27802-3 0  9995
2 22286  82.5176 279.6459 0019637  90.2610 270.0863 14.96974198769441
