CCSDS_OMM_VERS = 2.0
CREATION_DATE  = 
ORIGINATOR     = 

OBJECT_NAME    = SL-14 R/B
OBJECT_ID      = 1991-042B
CENTER_NAME    = EARTH
REF_FRAME      = TEME
TIME_SYSTEM    = UTC
MEAN_ELEMENT_THEORY = SGP/SGP4

EPOCH          = 2026-01-24T09:25:30.219168
MEAN_MOTION    = 14.81785771
ECCENTRICITY   = .0017861
INCLINATION    = 82.4914
RA_OF_ASC_NODE = 261.7304
ARG_OF_PERICENTER = 31.1185
MEAN_ANOMALY   = 329.1082

EPHEMERIS_TYPE = 0
CLASSIFICATION_TYPE = U
NORAD_CAT_ID   = 21423
ELEMENT_SET_NO = 999
REV_AT_EPOCH   = 84651
BSTAR          = .85914E-4
MEAN_MOTION_DOT = .703E-5
MEAN_MOTION_DDOT = 0

CCSDS_OMM_VERS = 2.0
CREATION_DATE  = 
ORIGINATOR     = 

OBJECT_NAME    = ERS-1
OBJECT_ID      = 1991-050A
CENTER_NAME    = EARTH
REF_FRAME      = TEME
TIME_SYSTEM    = UTC
MEAN_ELEMENT_THEORY = SGP/SGP4

EPOCH          = 2026-01-24T11:42:32.457888
MEAN_MOTION    = 14.39408048
ECCENTRICITY   = .003148
INCLINATION    = 98.7898
RA_OF_ASC_NODE = 41.6116
ARG_OF_PERICENTER = 335.2350
MEAN_ANOMALY   = 24.7324

EPHEMERIS_TYPE = 0
CLASSIFICATION_TYPE = U
NORAD_CAT_ID   = 21574
ELEMENT_SET_NO = 999
REV_AT_EPOCH   = 80937
BSTAR          = .22666E-3
MEAN_MOTION_DOT = .663E-5
MEAN_MOTION_DDOT = 0

CCSDS_OMM_VERS = 2.0
CREATION_DATE  = 
ORIGINATOR     = 

OBJECT_NAME    = ARIANE 40 R/B
OBJECT_ID      = 1991-050F
CENTER_NAME    = EARTH
REF_FRAME      = TEME
TIME_SYSTEM    = UTC
MEAN_ELEMENT_THEORY = SGP/SGP4

EPOCH          = 2026-01-24T10:27:36.868896
MEAN_MOTION    = 14.42856601
ECCENTRICITY   = .0002888
INCLINATION    = 98.2103
RA_OF_ASC_NODE = 78.3134
ARG_OF_PERICENTER = 185.7202
MEAN_ANOMALY   = 174.3956

EPHEMERIS_TYPE = 0
CLASSIFICATION_TYPE = U
NORAD_CAT_ID   = 21610
ELEMENT_SET_NO = 999
REV_AT_EPOCH   = 81261
BSTAR          = .21933E-3
MEAN_MOTION_DOT = .69E-5
MEAN_MOTION_DDOT = 0

CCSDS_OMM_VERS = 2.0
CREATION_DATE  = 
ORIGINATOR     = 

OBJECT_NAME    = INTERCOSMOS 25
OBJECT_ID      = 1991-086A
CENTER_NAME    = EARTH
REF_FRAME      = TEME
TIME_SYSTEM    = UTC
MEAN_ELEMENT_THEORY = SGP/SGP4

EPOCH          = 2026-01-24T07:41:43.176768
MEAN_MOTION    = 12.11875511
ECCENTRICITY   = .1486158
INCLINATION    = 82.6091
RA_OF_ASC_NODE = 336.8211
ARG_OF_PERICENTER = 212.5446
MEAN_ANOMALY   = 137.4942

EPHEMERIS_TYPE = 0
CLASSIFICATION_TYPE = U
NORAD_CAT_ID   = 21819
ELEMENT_SET_NO = 999
REV_AT_EPOCH   = 49131
BSTAR          = .34562E-3
MEAN_MOTION_DOT = .1752E-4
MEAN_MOTION_DDOT = 0

CCSDS_OMM_VERS = 2.0
CREATION_DATE  = 
ORIGINATOR     = 

OBJECT_NAME    = SL-8 R/B
OBJECT_ID      = 1992-008B
CENTER_NAME    = EARTH
REF_FRAME      = TEME
TIME_SYSTEM    = UTC
MEAN_ELEMENT_THEORY = SGP/SGP4

EPOCH          = 2026-01-24T12:46:46.279776
MEAN_MOTION    = 13.75968076
ECCENTRICITY   = .0033314
INCLINATION    = 82.9287
RA_OF_ASC_NODE = 300.6231
ARG_OF_PERICENTER = 257.8767
MEAN_ANOMALY   = 275.2786

EPHEMERIS_TYPE = 0
CLASSIFICATION_TYPE = U
NORAD_CAT_ID   = 21876
ELEMENT_SET_NO = 999
REV_AT_EPOCH   = 70334
BSTAR          = .11158E-3
MEAN_MOTION_DOT = .123E-5
MEAN_MOTION_DDOT = 0

CCSDS_OMM_VERS = 2.0
CREATION_DATE  = 
ORIGINATOR     = 

OBJECT_NAME    = SL-8 R/B
OBJECT_ID      = 1992-020B
CENTER_NAME    = EARTH
REF_FRAME      = TEME
TIME_SYSTEM    = UTC
MEAN_ELEMENT_THEORY = SGP/SGP4

EPOCH          = 2026-01-24T11:09:51.819840
MEAN_MOTION    = 13.75541198
ECCENTRICITY   = .0030072
INCLINATION    = 82.9305
RA_OF_ASC_NODE = 186.5892
ARG_OF_PERICENTER = 62.5873
MEAN_ANOMALY   = 351.2212

EPHEMERIS_TYPE = 0
CLASSIFICATION_TYPE = U
NORAD_CAT_ID   = 21938
ELEMENT_SET_NO = 999
REV_AT_EPOCH   = 69505
BSTAR          = .19246E-3
MEAN_MOTION_DOT = .201E-5
MEAN_MOTION_DDOT = 0

CCSDS_OMM_VERS = 2.0
CREATION_DATE  = 
ORIGINATOR     = 

OBJECT_NAME    = USA 81
OBJECT_ID      = 1992-023A
CENTER_NAME    = EARTH
REF_FRAME      = TEME
TIME_SYSTEM    = UTC
MEAN_ELEMENT_THEORY = SGP/SGP4

EPOCH          = 2026-01-24T10:31:34.829184
MEAN_MOTION    = 14.32348574
ECCENTRICITY   = .0002133
INCLINATION    = 85.0111
RA_OF_ASC_NODE = 156.9537
ARG_OF_PERICENTER = 114.5338
MEAN_ANOMALY   = 245.6077

EPHEMERIS_TYPE = 0
CLASSIFICATION_TYPE = U
NORAD_CAT_ID   = 21949
ELEMENT_SET_NO = 999
REV_AT_EPOCH   = 8845
BSTAR          = .14852E-3
MEAN_MOTION_DOT = .421E-5
MEAN_MOTION_DDOT = 0

CCSDS_OMM_VERS = 2.0
CREATION_DATE  = 
ORIGINATOR     = 

OBJECT_NAME    = COSMOS 2219
OBJECT_ID      = 1992-076A
CENTER_NAME    = EARTH
REF_FRAME      = TEME
TIME_SYSTEM    = UTC
MEAN_ELEMENT_THEORY = SGP/SGP4

EPOCH          = 2026-01-24T12:31:08.066496
MEAN_MOTION    = 14.14081059
ECCENTRICITY   = .002082
INCLINATION    = 71.0613
RA_OF_ASC_NODE = 110.4049
ARG_OF_PERICENTER = 268.3437
MEAN_ANOMALY   = 91.5300

EPHEMERIS_TYPE = 0
CLASSIFICATION_TYPE = U
NORAD_CAT_ID   = 22219
ELEMENT_SET_NO = 999
REV_AT_EPOCH   = 71213
BSTAR          = -.43165E-4
MEAN_MOTION_DOT = -.13E-5
MEAN_MOTION_DDOT = 0

CCSDS_OMM_VERS = 2.0
CREATION_DATE  = 
ORIGINATOR     = 

OBJECT_NAME    = SL-16 R/B
OBJECT_ID      = 1992-076B
CENTER_NAME    = EARTH
REF_FRAME      = TEME
TIME_SYSTEM    = UTC
MEAN_ELEMENT_THEORY = SGP/SGP4

EPOCH          = 2026-01-24T10:51:12.156192
MEAN_MOTION    = 14.16850490
ECCENTRICITY   = .0012399
INCLINATION    = 70.9999
RA_OF_ASC_NODE = 281.5604
ARG_OF_PERICENTER = 173.0501
MEAN_ANOMALY   = 359.2763

EPHEMERIS_TYPE = 0
CLASSIFICATION_TYPE = U
NORAD_CAT_ID   = 22220
ELEMENT_SET_NO = 999
REV_AT_EPOCH   = 71556
BSTAR          = -.3696E-4
MEAN_MOTION_DOT = -.122E-5
MEAN_MOTION_DDOT = 0

CCSDS_OMM_VERS = 2.0
CREATION_DATE  = 
ORIGINATOR     = 

OBJECT_NAME    = COSMOS 2221
OBJECT_ID      = 1992-080A
CENTER_NAME    = EARTH
REF_FRAME      = TEME
TIME_SYSTEM    = UTC
MEAN_ELEMENT_THEORY = SGP/SGP4

EPOCH          = 2026-01-24T07:04:19.388640
MEAN_MOTION    = 14.95991122
ECCENTRICITY   = .0014262
INCLINATION    = 82.5066
RA_OF_ASC_NODE = 321.5912
ARG_OF_PERICENTER = 349.2352
MEAN_ANOMALY   = 10.8562

EPHEMERIS_TYPE = 0
CLASSIFICATION_TYPE = U
NORAD_CAT_ID   = 22236
ELEMENT_SET_NO = 999
REV_AT_EPOCH   = 77415
BSTAR          = .38617E-3
MEAN_MOTION_DOT = .4362E-4
MEAN_MOTION_DDOT = 0

CCSDS_OMM_VERS = 2.0
CREATION_DATE  = 
ORIGINATOR     = 

OBJECT_NAME    = SL-16 R/B
OBJECT_ID      = 1992-093B
CENTER_NAME    = EARTH
REF_FRAME      = TEME
TIME_SYSTEM    = UTC
MEAN_ELEMENT_THEORY = SGP/SGP4

EPOCH          = 2026-01-24T11:59:51.657216
MEAN_MOTION    = 14.15443252
ECCENTRICITY   = .0004414
INCLINATION    = 71.0222
RA_OF_ASC_NODE = 97.0357
ARG_OF_PERICENTER = 342.3554
MEAN_ANOMALY   = 17.7415

EPHEMERIS_TYPE = 0
CLASSIFICATION_TYPE = U
NORAD_CAT_ID   = 22285
ELEMENT_SET_NO = 999
REV_AT_EPOCH   = 70690
BSTAR          = .84119E-4
MEAN_MOTION_DOT = .117E-5
MEAN_MOTION_DDOT = 0

CCSDS_OMM_VERS = 2.0
CREATION_DATE  = 
ORIGINATOR     = 

OBJECT_NAME    = COSMOS 2228
OBJECT_ID      = 1992-094A
CENTER_NAME    = EARTH
REF_FRAME      = TEME
TIME_SYSTEM    = UTC
MEAN_ELEMENT_THEORY = SGP/SGP4

EPOCH          = 2026-01-24T11:22:06.976704
MEAN_MOTION    = 14.96974198
ECCENTRICITY   = .0019637
INCLINATION    = 82.5176
RA_OF_ASC_NODE = 279.6459
ARG_OF_PERICENTER = 90.2610
MEAN_ANOMALY   = 270.0863

EPHEMERIS_TYPE = 0
CLASSIFICATION_TYPE = U
NORAD_CAT_ID   = 22286
ELEMENT_SET_NO = 999
REV_AT_EPOCH   = 76944
BSTAR          = .27802E-3
MEAN_MOTION_DOT = .3234E-4
MEAN_MOTION_DDOT = 0

